stationName,Address,City,State,charger_type,stationModel,StationNetworkStatus,LastPortStatus,faultReason,StatusTimestamp,hours_unreachable,snapshot_utc
NYC FLEET / NYPD_ARCHERGN-2,92-33 168th St,Queens,New York,Level 2,CT4010-HD-GW,Unreachable,NEEDS SERVICE,Station Unreachable,2024-12-13T11:19:44Z,0.0,2025-11-05T17:32:49Z
NYC FLEET / DSNY_SPRSTLOT-2,353 Spring Street,New York,New York,Level 2,CT4020-HD,Unreachable,UNREACHABLE,NONE,2025-11-05T14:36:37Z,0.0,2025-11-05T17:32:49Z
NYC FLEET / DEP_LFRK_68+69,59-17 Junction Blvd,Flushing,New York,Level 2,CT4020-HD-GW,Unreachable,UNREACHABLE,NONE,2025-11-05T15:00:27Z,0.0,2025-11-05T17:32:49Z
NYC FLEET / DEP_WT_HP_CONST,1260 Ryawa Ave,Bronx,New York,Level 2,CT4020-HD2-GW-LTE,Unreachable,UNREACHABLE,NONE,2025-11-03T18:53:01Z,0.0,2025-11-05T17:32:49Z
NYC FLEET / DEP_WT_HP_ADMIN,1260 Ryawa Ave,Bronx,New York,Level 2,CT4020-HD-GW,Unreachable,UNREACHABLE,NONE,2025-11-05T16:30:45Z,0.0,2025-11-05T17:32:49Z
NYC FLEET / DSNY_SPRSTLOT-1,353 Spring Street,New York,New York,Level 2,CT4020-HD-GW,Unreachable,UNREACHABLE,NONE,2025-11-05T14:36:36Z,0.0,2025-11-05T17:32:49Z
NYC FLEET / DOE_K0001,50 Bedford Ave,Brooklyn,New York,Level 2,CT600-GW1-RFID,Unreachable,NEEDS SERVICE,Station Unreachable,2022-02-27T08:00:04Z,0.0,2025-11-05T17:32:49Z
NYC FLEET / DOE_ Q0002,165-65 84th Ave,Queens,New York,Level 2,CT600-GW1-RFID,Unreachable,NEEDS SERVICE,Station Unreachable,2018-12-04T17:15:20Z,0.0,2025-11-05T17:32:49Z
NYC FLEET / DOE_ Q0001,165-65 84th Ave,Queens,New York,Level 2,CT600-GW1-RFID,Unreachable,NEEDS SERVICE,Station Unreachable,2022-03-02T03:03:21Z,0.0,2025-11-05T17:32:49Z
NYC FLEET / DOE_ R0001,6581 Hylan Blvd,Staten Island,New York,Level 2,CT600-GW1-RFID,Unreachable,NEEDS SERVICE,Station Unreachable,2019-03-07T18:00:07Z,0.0,2025-11-05T17:32:49Z
NYC FLEET / OEMHQCADMAN-10,165 Cadman Plaza E,Brooklyn,New York,Level 2,CT600-GW1-RFID,Unreachable,NEEDS SERVICE,Station Unreachable,2022-03-02T05:40:23Z,0.0,2025-11-05T17:32:49Z
NYC FLEET / DOH_56 DRIVE,5617 56th Dr,queens,New York,Level 2,CT600-GW1-RFID,Unreachable,NEEDS SERVICE,Station Unreachable,2022-03-02T03:35:39Z,0.0,2025-11-05T17:32:49Z
NYC FLEET / DSNY_Q04-2,52-35 58th street,Woodside,New York,Level 2,CPF50-L23,Unreachable,UNREACHABLE,NONE,2025-09-17T16:55:21Z,0.0,2025-11-05T17:32:49Z
NYC FLEET / DSNY_QBSROOF-2,52-07 58th St,Flushing,New York,Level 2,CT4020-HD-GW,Unreachable,UNREACHABLE,NONE,2025-09-26T23:05:36Z,0.0,2025-11-05T17:32:49Z
NYC FLEET / DPR_CROTONAPL#1,1700 Fulton Ave,Morrisania,New York,Level 2,CT4020-HD-GW,Unreachable,UNREACHABLE,NONE,2024-12-13T11:20:15Z,0.0,2025-11-05T17:32:49Z
NYC FLEET / DPR_FTTOTTEN422,421 Sylvester Ln,Fort Totten,New York,Level 2,CT4020-HD-GW,Unreachable,UNREACHABLE,NONE,2025-09-07T07:36:38Z,0.0,2025-11-05T17:32:49Z
NYC FLEET / DOT_SPARE-4,42 South St,New York,New York,Level 2,CPF50,Unreachable,UNREACHABLE,NONE,2025-10-17T08:56:38Z,0.0,2025-11-05T17:32:49Z
NYC FLEET / NYPD_COLLPTTOW3,31-22 College Point Blvd,Flushing,New York,Level 2,CT4010-HD-GW,Unreachable,UNREACHABLE,NONE,2025-11-04T21:46:28Z,0.0,2025-11-05T17:32:49Z
NYC FLEET / DOT_SPARE-1,32 Old Slip,New York,New York,Level 2,CPF25,Unreachable,UNREACHABLE,NONE,2025-10-17T12:36:37Z,0.0,2025-11-05T17:32:49Z
NYC FLEET / DOT_SPARE-2,32 Old Slip,New York,New York,Level 2,CPF25,Unreachable,UNREACHABLE,NONE,2025-10-17T12:36:37Z,0.0,2025-11-05T17:32:49Z
NYC FLEET / DOT_SPARE-3,42 South St,New York,New York,Level 2,CPF25,Unreachable,UNREACHABLE,NONE,2025-10-17T12:36:37Z,0.0,2025-11-05T17:32:49Z
NYC FLEET / DOTMASPETHQNS-2,58-50 57th R,Maspeth,New York,Level 2,CPF50,Unreachable,UNREACHABLE,NONE,2025-07-26T10:03:13Z,0.0,2025-11-05T17:32:49Z
NYC FLEET / NYPDHQ_1PP_9_L3,1 Police Plaza,New York,New York,Level 3,CPE250C-500-CCS1-CHD,Unreachable,UNREACHABLE,NONE,2024-12-12T23:24:37Z,0.0,2025-11-05T17:32:49Z
NYC FLEET / DPR_ALLIED5,15 East Rd,Corona,New York,Level 2,CT4020-HD-GW,Unreachable,UNREACHABLE,NONE,2025-11-02T07:22:52Z,0.0,2025-11-05T17:32:49Z
NYC FLEET / DPR_ARSENAL18,East Dr,New York,New York,Level 2,CPF50-L18,Unreachable,NEEDS SERVICE,Station Unreachable,2024-08-11T20:05:19Z,0.0,2025-11-05T17:32:49Z
NYC FLEET / DSNY_BK12-S2,5602 19th Ave,Mapleton,New York,Level 2,CT4010-HD-GW,Unreachable,UNREACHABLE,NONE,2025-06-20T00:06:47Z,0.0,2025-11-05T17:32:49Z
NYC FLEET / DEP_MNRPR_1_L3,30 Pike St,New York,New York,Level 3,CPE250C-500-CCS1-CHD,Unreachable,UNREACHABLE,NONE,2023-12-15T15:28:11Z,0.0,2025-11-05T17:32:49Z
NYC FLEET / DEPNTWNCRK_2_L3,319 Greenpoint Ave,Greenpoint,New York,Level 3,CPE250C-500-CCS1-CHD,Unreachable,UNREACHABLE,NONE,2025-10-15T19:38:28Z,0.0,2025-11-05T17:32:49Z
NYC FLEET / HRA_FOSTER-S1,10300 Foster Avenue,Brooklyn,New York,Level 2,CT4010-HD-GW,Unreachable,UNREACHABLE,NONE,2025-09-07T14:34:25Z,0.0,2025-11-05T17:32:49Z
NYC FLEET / NYPD_PSA7-1,737 Melrose Ave,The Bronx,New York,Level 2,CPF50-L18,Unreachable,NEEDS SERVICE,Station Unreachable,2025-03-07T04:03:47Z,0.0,2025-11-05T17:32:49Z
NYC FLEET / DSNY_SI3A-S3,1000 West Service Road,Staten Island,New York,Level 2,CT4010-HD-GW,Unreachable,UNREACHABLE,NONE,2025-08-12T06:00:53Z,0.0,2025-11-05T17:32:49Z
NYC FLEET / NYPD_SPRGFLD-2,174-20 N Boundary Rd,Queens,New York,Level 2,CPF50-L18,Unreachable,NEEDS SERVICE,Station Unreachable,2023-08-19T00:11:50Z,0.0,2025-11-05T17:32:49Z
NYC FLEET / NYPD_83PCT-1,480 Knickerbocker Ave,Brooklyn,New York,Level 2,CPF50-L18,Unreachable,NEEDS SERVICE,Station Unreachable,2024-08-22T17:53:30Z,0.0,2025-11-05T17:32:49Z
NYC FLEET / DSNY_FBF-S1,50 Aviation Rd,Brooklyn,New York,Level 2,CT4010-HD-GW,Unreachable,UNREACHABLE,NONE,2025-11-05T12:38:39Z,0.0,2025-11-05T17:32:49Z
NYC FLEET / DPR_CNRSIEPK-S1,1501 E 102nd St,Brooklyn,New York,Level 2,CT4010-HD-GW,Unreachable,UNREACHABLE,NONE,2025-11-03T12:54:47Z,0.0,2025-11-05T17:32:49Z
NYC FLEET / DSNY_BK11-S2,1824 Shore Pkwy,Brooklyn,New York,Level 2,CT4010-HD-GW,Unreachable,UNREACHABLE,NONE,2025-09-05T14:38:42Z,0.0,2025-11-05T17:32:49Z
NYC FLEET / DSNY_BK11-S4,1824 Shore Pkwy,Brooklyn,New York,Level 2,CT4010-HD-GW,Unreachable,UNREACHABLE,NONE,2025-11-04T18:42:57Z,0.0,2025-11-05T17:32:49Z
NYC FLEET / DSNY_BK11-S1,1824 Shore Pkwy,Brooklyn,New York,Level 2,CT4010-HD-GW,Unreachable,UNREACHABLE,NONE,2025-08-12T22:14:49Z,0.0,2025-11-05T17:32:49Z
NYC FLEET / DSNY_SITS-S1,600 West Service Road,Travis - Chelsea,New York,Level 2,CT4010-HD2-GW-LTE,Unreachable,NEEDS SERVICE,Powered Off,2025-07-25T14:40:42Z,0.0,2025-11-05T17:32:49Z
NYC FLEET / DPRWFMARINA-S2,1 Marina Rd,Queens,New York,Level 2,CT4010-HD2-GW-LTE,Unreachable,UNREACHABLE,NONE,2025-11-02T07:55:48Z,0.0,2025-11-05T17:32:49Z
NYC FLEET / ACS_LINDEN_2_L3,2554 Linden Blvd,East New York,New York,Level 3,CPE250C-500-CCS1-CHD,Unreachable,UNREACHABLE,NONE,2025-11-05T12:24:23Z,0.0,2025-11-05T17:32:49Z
NYC FLEET / DHS_FARRAGUT-1,10107 Farragut Rd,Brooklyn,New York,Level 2,CPF50-L18,Unreachable,UNREACHABLE,NONE,2025-08-18T13:39:18Z,0.0,2025-11-05T17:32:49Z
NYC FLEET / DPR_5BORO#9A-B,14 Bronx Shore Rd,New York,New York,Level 2,CT4020-HD-GW,Unreachable,UNREACHABLE,NONE,2025-11-04T08:10:47Z,0.0,2025-11-05T17:32:49Z
NYC FLEET / NYPD_69PCT-2,9720 Foster Ave,Brooklyn,New York,Level 2,CPF50-L18,Unreachable,NEEDS SERVICE,Station Unreachable,2024-07-31T12:36:44Z,0.0,2025-11-05T17:32:49Z
NYC FLEET / DSNY_SI01-DCFC2,539 Jersey St,Staten Island,New York,Level 3,CPE250C-500-CCS1-CHD,Unreachable,UNREACHABLE,NONE,2025-10-16T12:11:03Z,0.0,2025-11-05T17:32:49Z
NYC FLEET / DSNY_SI01-DCFC1,539 Jersey St,Staten Island,New York,Level 3,CPE250C-500-CCS1-CHD,Unreachable,UNREACHABLE,NONE,2025-10-16T12:08:55Z,0.0,2025-11-05T17:32:49Z
NYC FLEET / DOC_GRVC-1,09-09 Hazen Street,The Bronx,New York,Level 2,CT4020-HD-GW,Unreachable,UNREACHABLE,NONE,2025-11-05T15:41:53Z,0.0,2025-11-05T17:32:49Z
NYC FLEET / NYPD_PSA4-2,130 Loisaida Ave,New York,New York,Level 2,CPF50-L18,Unreachable,UNREACHABLE,NONE,2025-10-18T10:36:25Z,0.0,2025-11-05T17:32:49Z
NYC FLEET / NYPD_PSA4-5,126 Loisaida Ave,New York,New York,Level 2,CPF50-L18,Unreachable,UNREACHABLE,NONE,2025-06-19T10:40:18Z,0.0,2025-11-05T17:32:49Z
NYC FLEET / DEP_WDRC#1,3525 State Highway 10,Deposit,New York,Level 2,CT4020-HD2-GW-LTE,Unreachable,UNKNOWN,NONE,,0.0,2025-11-05T17:32:49Z
NYC FLEET / NYPD_MIDSOUTH2,357 W 35th St,New York,New York,Level 2,CPF50-L18,Unreachable,NEEDS SERVICE,Station Unreachable,2024-07-11T16:35:44Z,0.0,2025-11-05T17:32:49Z
NYC FLEET / DOC_DCFLEET,15 Hazen St,Queens,New York,Level 2,CT4020-HD-GW,Unreachable,UNREACHABLE,NONE,2025-11-04T15:35:53Z,0.0,2025-11-05T17:32:49Z
NYC FLEET / DDC_HQ-S2,3030 Thomson Ave,Queens,New York,Level 2,CT4010-HD-GW,Unreachable,UNREACHABLE,NONE,2025-08-06T22:15:40Z,0.0,2025-11-05T17:32:49Z
NYC FLEET / DPR_VCP-S4,David Sheridan Plaza,The Bronx,New York,Level 2,CT4010-HD-GW,Unreachable,UNREACHABLE,NONE,2025-09-07T03:48:17Z,0.0,2025-11-05T17:32:49Z
NYC FLEET / DPR_VCP-S3,6477 US-9,The Bronx,New York,Level 2,CT4010-HD-GW,Unreachable,UNREACHABLE,NONE,2025-09-18T13:51:30Z,0.0,2025-11-05T17:32:49Z
NYC FLEET / DSNY_SI1A-S2,3 Muldoon Ave,Staten Island,New York,Level 2,CT4010-HD-GW,Unreachable,UNREACHABLE,NONE,2025-09-16T15:27:22Z,0.0,2025-11-05T17:32:49Z
NYC FLEET / DSNY_SWM-S2,3 Muldoon Ave,Staten Island,New York,Level 2,CT4010-HD-GW,Unreachable,UNREACHABLE,NONE,2025-06-11T11:27:15Z,0.0,2025-11-05T17:32:49Z
NYC FLEET / DSNY_SWM-S1,3 Muldoon Ave,Staten Island,New York,Level 2,CT4010-HD-GW,Unreachable,NEEDS SERVICE,Powered Off,2025-01-21T10:30:20Z,0.0,2025-11-05T17:32:49Z
NYC FLEET / DSNY_SI3A-S1,3 Muldoon Ave,Staten Island,New York,Level 2,CT4010-HD-GW,Unreachable,UNREACHABLE,NONE,2025-10-16T22:04:15Z,0.0,2025-11-05T17:32:49Z
NYC FLEET / DEP_BXWM-S1,3201 Jerome Ave,The Bronx,New York,Level 2,CT4010-HD-GW,Unreachable,UNREACHABLE,NONE,2025-09-15T17:05:12Z,0.0,2025-11-05T17:32:49Z
NYC FLEET / DEP_ASHOKN_1_L3,2398 NY-28A,Olivebridge,New York,Level 3,CPE250C-500-CCS1-CHD,Unreachable,UNREACHABLE,NONE,2025-11-05T12:32:13Z,0.0,2025-11-05T17:32:49Z
NYC FLEET / DOT_SIREPAIR-1,1893 Richmond Ter,Staten Island,New York,Level 2,CPF50-L18,Unreachable,UNREACHABLE,NONE,2025-11-05T07:41:10Z,0.0,2025-11-05T17:32:49Z
NYC FLEET / DOE_BXSCIHS-1,750 Baychester Ave Loading dock,The Bronx,New York,Level 2,CPF50-L18,Unreachable,NEEDS SERVICE,Station Unreachable,2023-12-29T13:21:55Z,0.0,2025-11-05T17:32:49Z
NYC FLEET / DPRROCKAWAY80S1,350 80 St,Queens,New York,Level 2,CT4010-HD2-GW-LTE,Unreachable,UNREACHABLE,NONE,2025-09-13T03:52:57Z,0.0,2025-11-05T17:32:49Z
NYC FLEET / DPRRIVERSIDE-S3,223 Riverside Dr,New York,New York,Level 2,CT4010-HD-GW,Unreachable,NEEDS SERVICE,Station Unreachable,2024-12-12T01:36:20Z,0.0,2025-11-05T17:32:49Z
NYC FLEET / DPR_RANDALLS-S2,4 Central Rd,New York,New York,Level 2,CT4010-HD-GW,Unreachable,UNREACHABLE,NONE,2025-11-05T16:06:36Z,0.0,2025-11-05T17:32:49Z
NYC FLEET / DEPOAKWWTP_4_L3,751 Mill Rd,Staten Island,New York,Level 3,CPE250C-500-CCS1-CHD,Unreachable,UNREACHABLE,NONE,2025-06-23T14:03:37Z,0.0,2025-11-05T17:32:49Z
NYC FLEET / DEPOAKWWTP_8_L3,751 Mill Rd,Staten Island,New York,Level 3,CPE250C-500-CCS1-CHD,Unreachable,UNREACHABLE,NONE,2025-10-30T18:21:22Z,0.0,2025-11-05T17:32:49Z
NYC FLEET / DPR_MILLPOND-S1,5968 Maj Wm Deegan Blvd,The Bronx,New York,Level 2,CT4010-HD-GW,Unreachable,NEEDS SERVICE,Powered Off,2025-11-04T20:44:30Z,0.0,2025-11-05T17:32:49Z
NYC FLEET / DPR_MIDLAND-S4,3 Iroquois St,Staten Island,New York,Level 2,CT4010-HD-GW,Unreachable,UNREACHABLE,NONE,2025-11-05T14:25:10Z,0.0,2025-11-05T17:32:49Z
NYC FLEET / DOT_GLENDALE-S1,69-46 Sybilla St,Queens,New York,Level 2,CT4010-HD-GW,Unreachable,UNREACHABLE,NONE,2025-11-05T15:25:26Z,0.0,2025-11-05T17:32:49Z
NYC FLEET / DOT_GLENDALE-S2,69-46 Sybilla St,Queens,New York,Level 2,CT4010-HD-GW,Unreachable,UNREACHABLE,NONE,2025-10-30T18:04:46Z,0.0,2025-11-05T17:32:49Z
NYC FLEET / DPR_OLMSTED-S1,12 Olmsted Dr,Queens,New York,Level 2,CT4010-HD2-GW-LTE,Unreachable,UNREACHABLE,NONE,2025-11-05T00:58:19Z,0.0,2025-11-05T17:32:49Z
NYC FLEET / DEP_7WARDSI-S7,116 K Rd,New York,New York,Level 2,CT4010-HD-GW,Unreachable,UNREACHABLE,NONE,2025-11-03T19:03:02Z,0.0,2025-11-05T17:32:49Z
NYC FLEET / DOE_STJOSEPH-1,85 St Josephs Ave,Staten Island,New York,Level 2,CPF50-L18-PEDMNT-CMK6,Unreachable,UNREACHABLE,NONE,2025-11-05T02:24:28Z,0.0,2025-11-05T17:32:49Z
NYC FLEET / NYPD_75PCT-1,1000 Sutter Ave Back lot,Brooklyn,New York,Level 2,CPF50-L18,Unreachable,UNREACHABLE,NONE,2025-07-26T12:57:21Z,0.0,2025-11-05T17:32:49Z
NYC FLEET / DOT_BAT-#1,140 58th St,Brooklyn,New York,Level 2,CPF50-L18,Unreachable,UNREACHABLE,NONE,2025-07-08T19:02:56Z,0.0,2025-11-05T17:32:49Z
NYC FLEET / DPR_OVRLK_B1_L3,80-30 Park Ln,Queens,New York,Unknown,900-00150-113NNN8S2,Unreachable,NEEDS SERVICE,Error in internal hard- or software component,2024-07-05T14:45:09Z,0.0,2025-11-05T17:32:49Z
NYC FLEET / NYPD_123PCT-#1,116 Main St,Staten Island,New York,Level 2,CPF50-L18,Unreachable,UNREACHABLE,NONE,2025-10-16T22:13:36Z,0.0,2025-11-05T17:32:49Z
NYC FLEET / DOE_Q80102,44-36 Vernon Blvd,LIC,New York,Level 2,CT4020-HD2-GW-LTE,Unreachable,UNKNOWN,NONE,2025-07-16T11:12:22Z,0.0,2025-11-05T17:32:49Z
NYC FLEET / DEP_MNSEWR_2_L3,886 Saint Nicholas Avenue,New York,New York,Level 3,CPE250C-500-CCS1-CHD,Unreachable,NEEDS SERVICE,Powered Off,2024-10-17T14:03:06Z,0.0,2025-11-05T17:32:49Z
NYC FLEET / FDNY_BFIBK#1,5600 1st Ave,Brooklyn,New York,Level 2,CPF50-L18,Unreachable,UNREACHABLE,NONE,2025-11-05T17:17:17Z,0.0,2025-11-05T17:32:49Z
NYC FLEET / DOE_KNGHWY197#1,1599 E 22nd St,Brooklyn,New York,Level 2,CPF50-L18,Unreachable,UNREACHABLE,NONE,2025-09-29T14:58:51Z,0.0,2025-11-05T17:32:49Z
NYC FLEET / DOE_M646,321 E 96th St,New York,New York,Level 2,CT600-GW1-RFID,Unreachable,NEEDS SERVICE,Station Unreachable,2022-03-02T05:11:11Z,0.0,2025-11-05T17:32:49Z
NYC FLEET / DHS_COMM#27,64 Sunken Garden Loop,New York,New York,Level 2,CT600-GW1-RFID,Unreachable,NEEDS SERVICE,Station Unreachable,2022-03-02T05:26:18Z,0.0,2025-11-05T17:32:49Z
NYC FLEET / OEMHQCADMAN-12,165 Cadman Plaza E,Brooklyn,New York,Level 2,CT600-GW1-RFID,Unreachable,NEEDS SERVICE,Station Unreachable,2022-03-02T05:19:10Z,0.0,2025-11-05T17:32:49Z
NYC FLEET / OEMHQCADMAN-7,165 Cadman Plaza E,Brooklyn,New York,Level 2,CT600-GW1-RFID,Unreachable,NEEDS SERVICE,Station Unreachable,2022-03-02T05:19:53Z,0.0,2025-11-05T17:32:49Z
NYC FLEET / DPRCUNINGHM7A-B,196-03 Grand Central Pkwy,Queens,New York,Level 2,CT4020-HD2-GW-LTE,Unreachable,NEEDS SERVICE,Powered Off,2025-01-14T15:20:12Z,0.0,2025-11-05T17:32:49Z
NYC FLEET / DEP_AVIATN_1_L3,84 Citation Dr,Wappingers Falls,New York,Level 3,CPE250C-500-CCS1-CHD,Unreachable,UNREACHABLE,NONE,2025-07-14T19:03:50Z,0.0,2025-11-05T17:32:49Z
NYC FLEET / DEP_AVIATN_2_L3,84 Citation Dr,Wappingers Falls,New York,Level 3,CPE250C-500-CCS1-CHD,Unreachable,UNREACHABLE,NONE,2025-07-14T18:57:52Z,0.0,2025-11-05T17:32:49Z
NYC FLEET / DOT_206YRD_1_L3,300 West 206th Street,New York,New York,Level 3,CPE250C-500-CCS1-CHD,Unreachable,UNREACHABLE,NONE,2025-09-18T04:57:24Z,0.0,2025-11-05T17:32:49Z
NYC FLEET / NYCHA 23ASH2A B,23 Ash St,Greenpoint,New York,Level 2,CT4020-HD,Unreachable,UNREACHABLE,NONE,2025-10-20T10:15:47Z,0.0,2025-11-05T17:32:49Z
NYC FLEET / NYCHA 23ASH3A B,23 Ash St,Greenpoint,New York,Level 2,CT4020-HD,Unreachable,UNREACHABLE,NONE,2025-10-20T10:15:47Z,0.0,2025-11-05T17:32:49Z
NYC FLEET / FDNYMS ST1,135-16 38th Ave,Queens,New York,Level 2,CPF50-L18,Unreachable,UNREACHABLE,NONE,2025-04-23T06:11:54Z,0.0,2025-11-05T17:32:49Z
NYC FLEET / DCAS_PSAC2_2_L3,350 Marconi Street,The Bronx,New York,Level 3,CPE250C-500-CCS1-CHD,Unreachable,UNREACHABLE,NONE,2025-09-11T09:19:04Z,0.0,2025-11-05T17:32:49Z
NYC FLEET / FDNY_EMS7-1,100 Duane Street,New York,New York,Level 2,CPF50-L18,Unreachable,UNREACHABLE,NONE,2025-11-03T22:19:51Z,0.0,2025-11-05T17:32:49Z
NYC FLEET / DEP_OWLSHD_5_L3,6700 Shore Road,Brooklyn,New York,Level 3,CPE250C-500-CCS1-CHD,Unreachable,UNREACHABLE,NONE,2025-11-05T08:32:12Z,0.0,2025-11-05T17:32:49Z
NYC FLEET / DPRCALVAUX-S2,1990 Shore Pkwy,Gravesend,New York,Level 2,CT4010-HD-GW,Unreachable,UNREACHABLE,NONE,2025-11-03T17:46:12Z,0.0,2025-11-05T17:32:49Z
NYC FLEET / DPRHIGHWAYP2-S1,2900 Flatbush Ave,Brooklyn,New York,Level 2,CT4010-HD-GW,Unreachable,UNREACHABLE,NONE,2025-11-04T22:38:19Z,0.0,2025-11-05T17:32:49Z
NYC FLEET / FDNY_BFIBK#2,5600 1st Avenue FDNY,Brooklyn,New York,Level 2,CPF50-L18,Unreachable,UNREACHABLE,NONE,2025-11-05T17:17:17Z,0.0,2025-11-05T17:32:49Z
NYC FLEET / DPRROCKAWAY30,102 32 St,Queens,New York,Level 2,CT4010-HD2-GW-LTE,Unreachable,UNREACHABLE,NONE,2025-10-25T11:16:19Z,0.0,2025-11-05T17:32:49Z
NYC FLEET / DPRROCKAWAY30B,1-09 Beach 30th St,Queens,New York,Level 2,CT4010-HD-GW,Unreachable,UNREACHABLE,NONE,2025-09-23T13:06:31Z,0.0,2025-11-05T17:32:49Z
NYC FLEET / DPRCUNINGHM6A-B,196-5 Grand Central Parkway N Svc Rd,Queens,New York,Level 2,CT4020-HD-GW,Unreachable,NEEDS SERVICE,Powered Off,2025-01-14T15:20:08Z,0.0,2025-11-05T17:32:49Z
NYC FLEET / DPRCUNINGHM5A-B,196-5 Grand Central Parkway N Svc Rd,Queens,New York,Level 2,CT4020-HD-GW,Unreachable,NEEDS SERVICE,Powered Off,2025-01-14T15:20:08Z,0.0,2025-11-05T17:32:49Z
NYC FLEET / DPRCUNINGHM2A-B,19600 Union Tpke,Fresh Meadows,New York,Level 2,CT4020-HD-GW,Unreachable,NEEDS SERVICE,Powered Off,2025-01-14T15:20:08Z,0.0,2025-11-05T17:32:49Z
NYC FLEET / DPRCUNINGHM3A-B,19600 Union Tpke,Fresh Meadows,New York,Level 2,CT4020-HD-GW,Unreachable,NEEDS SERVICE,Station Unreachable,2023-10-10T16:30:01Z,0.0,2025-11-05T17:32:49Z
NYC FLEET / DPRMBLOT7-S1,829 Father Capodanno Blvd,Midland Beach,New York,Level 2,CT4010-HD-GW,Unreachable,UNREACHABLE,NONE,2025-10-31T21:59:51Z,0.0,2025-11-05T17:32:49Z
NYC FLEET / DPRMBLOT8-S3,Father Capodanno Blvd,Midland Beach,New York,Level 2,CT4010-HD-GW,Unreachable,UNREACHABLE,NONE,2025-11-05T01:46:27Z,0.0,2025-11-05T17:32:49Z
NYC FLEET / DPRSBLOT4-S2,405 Father Capodanno Blvd,South Beach,New York,Level 2,CT4010-HD-GW,Unreachable,NEEDS SERVICE,Powered Off,2022-07-18T20:16:25Z,0.0,2025-11-05T17:32:49Z
NYC FLEET / DPRMBLOT7-S2,829 Father Capodanno Blvd,Midland Beach,New York,Level 2,CT4010-HD-GW,Unreachable,UNREACHABLE,NONE,2025-11-05T13:27:04Z,0.0,2025-11-05T17:32:49Z
NYC FLEET / DPRSBLOT4-S1,405 Father Capodanno Blvd,South Beach,New York,Level 2,CT4010-HD-GW,Unreachable,UNREACHABLE,NONE,2025-11-05T14:44:42Z,0.0,2025-11-05T17:32:49Z
NYC FLEET / DOE_HYLANBLVD-1,6581 Hylan Blvd,Staten Island,New York,Level 2,CPF50-L18,Unreachable,UNKNOWN,NONE,2025-11-05T12:41:17Z,0.0,2025-11-05T17:32:49Z
NYC FLEET / DEP_930ZEREGA_1,930 Zerega Ave,East Bronx,New York,Level 2,CT4020-HD-GW,Unreachable,NEEDS SERVICE,Powered Off,2024-01-24T13:35:55Z,0.0,2025-11-05T17:32:49Z
NYC FLEET / DPROLMSTED#2A-B,117-2 Roosevelt Ave,Corona,New York,Level 2,CT4020-HD-GW,Unreachable,UNREACHABLE,NONE,2025-11-05T15:25:52Z,0.0,2025-11-05T17:32:49Z
NYC FLEET / DPRQNSMSEUM#1#2,Avenue of the States,Corona,New York,Level 2,CT4020-HD-GW,Unreachable,UNREACHABLE,NONE,2025-11-05T16:08:04Z,0.0,2025-11-05T17:32:49Z
NYC FLEET / DPRCUNINGHM4A-B,19600 Union Tpke,Fresh Meadows,New York,Level 2,CT4020-HD-GW,Unreachable,NEEDS SERVICE,Powered Off,2025-01-14T15:19:44Z,0.0,2025-11-05T17:32:49Z
NYC FLEET / DSNY_Q14-2,51-10 Almeda Ave,Far Rockaway,New York,Level 2,CT4020-HD-GW,Unreachable,UNREACHABLE,NONE,2025-11-05T12:32:16Z,0.0,2025-11-05T17:32:49Z
NYC FLEET / DPR_ALLIED-S#14,13 East Rd,Corona,New York,Level 2,CT4010-HD2-GW-LTE,Unreachable,UNREACHABLE,NONE,2025-10-29T20:04:23Z,0.0,2025-11-05T17:32:49Z
NYC FLEET / DDC_LIC-S2,30-20 Thomson Ave,Long Island City,New York,Level 2,CT4010-HD-GW,Unreachable,UNREACHABLE,NONE,2025-07-13T05:00:45Z,0.0,2025-11-05T17:32:49Z
NYC FLEET / DDC_LIC-S1,30-20 Thomson Ave,LIC,New York,Level 2,CT4010-HD-GW,Unreachable,UNREACHABLE,NONE,2025-07-20T11:31:27Z,0.0,2025-11-05T17:32:49Z
NYC FLEET / NYPD72PCT-1,830 4th Ave,Greenwood,New York,Level 2,CT4020-HD-GW,Unreachable,UNREACHABLE,NONE,2025-11-05T15:04:03Z,0.0,2025-11-05T17:32:49Z
NYC FLEET / DPRLYONSPL1A-B,15 Murray Hulbert Ave,Staten Island,New York,Level 2,CT4020-HD-GW,Unreachable,NEEDS SERVICE,Powered Off,2024-03-22T16:44:54Z,0.0,2025-11-05T17:32:49Z
NYC FLEET / DPR5BOROBB1A-B,20R Bronx Shore Rd,New York,New York,Level 2,CT4020-HD-GW,Unreachable,UNREACHABLE,NONE,2025-11-05T12:12:19Z,0.0,2025-11-05T17:32:49Z
NYC FLEET / DSNY_BK17-1,10502 Avenue D,Brooklyn,New York,Level 2,CPF25,Unreachable,UNREACHABLE,NONE,2025-05-05T17:46:45Z,0.0,2025-11-05T17:32:49Z
NYC FLEET / DEP_WARDSTLR-1,143 A Rd Transportation Trailer,New York,New York,Level 2,CPF25,Unreachable,UNKNOWN,NONE,2025-10-29T16:43:51Z,0.0,2025-11-05T17:32:49Z
NYC FLEET / DPRFTTOTTEN2A-B,638 Bayside St BLDG #637,Bayside,New York,Level 2,CT4020-HD-GW,Unreachable,UNREACHABLE,NONE,2025-11-05T12:02:55Z,0.0,2025-11-05T17:32:49Z
NYC FLEET / DEPDOWNSVILLE_4,20 New York City Highway 30A,Downsville,New York,Level 2,CT4020-HD2-GW-LTE,Unreachable,NEEDS SERVICE,Powered Off,2025-09-14T11:19:10Z,0.0,2025-11-05T17:32:49Z
NYC FLEET / DEPDOWNSVILLE_3,20 New York City Highway 30A,Downsville,New York,Level 2,CT4020-HD2-GW-LTE,Unreachable,NEEDS SERVICE,Powered Off,2025-09-14T11:19:10Z,0.0,2025-11-05T17:32:49Z
NYC FLEET / DEP_WS465COLU2,465 Columbus Ave,Valhalla,New York,Level 2,CT4020-HD-GW,Unreachable,UNREACHABLE,NONE,2025-11-05T15:11:01Z,0.0,2025-11-05T17:32:49Z
NYC FLEET / DEP_GRAHMSVLLE2,7858 NY-42,Grahamsville,New York,Level 2,CT4020-HD-GW,Unreachable,NEEDS SERVICE,Station Unreachable,2022-03-08T03:10:18Z,0.0,2025-11-05T17:32:49Z
NYC FLEET / DEPDOWNSVILLE_1,20 New York City Highway 30A,Downsville,New York,Level 2,CT4020-HD2-GW-LTE,Unreachable,NEEDS SERVICE,Powered Off,2025-09-14T11:19:11Z,0.0,2025-11-05T17:32:49Z
NYC FLEET / DEPDOWNSVILLE_2,40 New York City Highway 30A,Downsville,New York,Level 2,CT4020-HD2-GW-LTE,Unreachable,NEEDS SERVICE,Powered Off,2025-09-14T11:19:10Z,0.0,2025-11-05T17:32:49Z
NYC FLEET / DEP_CRSSRIVER-2,241 Cross River Rd,Katonah,New York,Level 2,CT4020-HD-GW,Unreachable,UNREACHABLE,NONE,2025-11-05T01:53:19Z,0.0,2025-11-05T17:32:49Z
NYC FLEET / DEP_KINGSTON-2,91 Smith Ave,Kingston,New York,Level 2,CT4020-HD-GW,Unreachable,UNREACHABLE,NONE,2025-11-05T14:49:19Z,0.0,2025-11-05T17:32:49Z
NYC FLEET / DPRCONFHSE1A-B,298 Satterlee St,Tottenville,New York,Level 2,CT4020-HD-GW,Unreachable,UNREACHABLE,NONE,2025-11-05T03:03:32Z,0.0,2025-11-05T17:32:49Z
NYC FLEET / DPRARSENAL#2,East Dr,New York,New York,Level 2,CPF25,Unreachable,UNREACHABLE,NONE,2025-09-18T23:54:09Z,0.0,2025-11-05T17:32:49Z
NYC FLEET / DPRARSENAL#5,East Dr,New York,New York,Level 2,CPF25,Unreachable,UNREACHABLE,NONE,2025-09-18T23:54:09Z,0.0,2025-11-05T17:32:49Z
NYC FLEET / DPRARSENAL#4,East Dr,New York,New York,Level 2,CPF50-L18,Unreachable,UNREACHABLE,NONE,2025-09-19T00:01:51Z,0.0,2025-11-05T17:32:49Z
NYC FLEET / DPRARSENAL#6,East Dr,New York,New York,Level 2,CPF25,Unreachable,UNREACHABLE,NONE,2025-09-18T23:54:09Z,0.0,2025-11-05T17:32:49Z
NYC FLEET / DPRARSENAL#7,East Dr,New York,New York,Level 2,CPF25,Unreachable,UNREACHABLE,NONE,2025-09-18T23:54:09Z,0.0,2025-11-05T17:32:49Z
NYC FLEET / DPRARSENAL#8,East Dr,New York,New York,Level 2,CPF50-L18,Unreachable,NEEDS SERVICE,Station Unreachable,2023-07-16T00:05:55Z,0.0,2025-11-05T17:32:49Z
NYC FLEET / DPRARSENAL-8,East Dr,New York,New York,Level 2,CPF25,Unreachable,UNREACHABLE,NONE,2025-09-18T23:54:09Z,0.0,2025-11-05T17:32:49Z
NYC FLEET / DPRQNSSHOPS2A-B,8298 88th Pl,Flushing,New York,Level 2,CT4020-HD-GW,Unreachable,UNREACHABLE,NONE,2025-10-22T16:07:19Z,0.0,2025-11-05T17:32:49Z
NYC FLEET / DPRARSENAL#13,East Dr,New York,New York,Level 2,CPF50-L18,Unreachable,NEEDS SERVICE,Station Unreachable,2023-11-07T18:33:12Z,0.0,2025-11-05T17:32:49Z
NYC FLEET / DEP_WARDTRLR116,116 4th Dr,New York,New York,Level 2,CT4020-HD-GW,Unreachable,UNREACHABLE,NONE,2025-11-02T09:01:38Z,0.0,2025-11-05T17:32:49Z
NYC FLEET / DPROCEANBR#1A-B,631-643 Father Capodanno Blvd,South Beach,New York,Level 2,CT4020-HD-GW,Unreachable,UNREACHABLE,NONE,2025-11-04T11:54:06Z,0.0,2025-11-05T17:32:49Z
NYC FLEET / DPRBXFORST#5A-B,1831 Unionport Rd,East Bronx,New York,Level 2,CT4020-HD-GW,Unreachable,UNREACHABLE,NONE,2025-11-05T16:43:16Z,0.0,2025-11-05T17:32:49Z
NYC FLEET / DPROLMBRADDICK1,8 Olmsted Dr,Corona,New York,Level 2,CPF50-L18,Unreachable,NEEDS SERVICE,Station Unreachable,2025-01-28T13:40:34Z,0.0,2025-11-05T17:32:49Z
NYC FLEET / DPRARSENAL#3,East Dr,New York,New York,Level 2,CPF25,Unreachable,UNREACHABLE,NONE,2025-09-18T23:54:09Z,0.0,2025-11-05T17:32:49Z
NYC FLEET / DPRARSENAL#1,East Dr,New York,New York,Level 2,CPF25,Unreachable,UNREACHABLE,NONE,2025-09-18T23:54:09Z,0.0,2025-11-05T17:32:49Z
NYC FLEET / DEP_LFRK117+118,58-17 Junction Blvd,Flushing,New York,Level 2,CT4020-HD-GW,Unreachable,UNREACHABLE,NONE,2025-11-05T14:27:01Z,0.0,2025-11-05T17:32:49Z
NYC FLEET / NYCHA_MBMO_1,1980 Lexington Ave,New York,New York,Level 2,CT4010-HD-GW,Unreachable,UNREACHABLE,NONE,2025-11-05T10:08:36Z,0.0,2025-11-05T17:32:49Z
NYC FLEET / OEMHQCADMAN-3,165 Cadman Plaza E,Brooklyn,New York,Level 2,CT600-GW1-RFID,Unreachable,NEEDS SERVICE,Station Unreachable,2019-03-19T12:59:30Z,0.0,2025-11-05T17:32:49Z
NYC FLEET / OEMHQCADMAN-4,165 Cadman Plaza E,Brooklyn,New York,Level 2,CT600-GW1-RFID,Unreachable,NEEDS SERVICE,Station Unreachable,2022-03-02T05:21:31Z,0.0,2025-11-05T17:32:49Z
NYC FLEET / OEMHQCADMAN-2,165 Cadman Plaza E,Brooklyn,New York,Level 2,CT600-GW1-RFID,Unreachable,NEEDS SERVICE,Station Unreachable,2022-03-02T05:45:15Z,0.0,2025-11-05T17:32:49Z
NYC FLEET / OEMHQCADMAN-1,165 Cadman Plaza E,Brooklyn,New York,Level 2,CT600-GW1-RFID,Unreachable,NEEDS SERVICE,Station Unreachable,2022-03-02T05:46:19Z,0.0,2025-11-05T17:32:49Z
NYC FLEET / DOT_WLMSBG_1_L3,101 Varick Ave,Brooklyn,New York,Level 3,CPE250C-500-CCS1-CHD,Unreachable,UNREACHABLE,NONE,2025-05-28T12:25:36Z,0.0,2025-11-05T17:32:49Z
NYC FLEET / NYPDHQ_1PP10_L3,1 Police Plaza Path,New York,New York,Level 3,CPE250C-500-CCS1-CHD,Unreachable,NEEDS SERVICE,Station Unreachable,2023-04-26T17:44:11Z,0.0,2025-11-05T17:32:49Z
NYC FLEET / DPRNMEADOW#1A-B,97th St Transverse,New York,New York,Level 2,CT4020-HD-GW,Unreachable,NEEDS SERVICE,Powered Off,2023-09-19T13:43:30Z,0.0,2025-11-05T17:32:49Z
NYC FLEET / DPRNMEADOW#2A-B,97th St Transverse,New York,New York,Level 2,CT4020-HD-GW,Unreachable,NEEDS SERVICE,Powered Off,2023-09-19T13:33:52Z,0.0,2025-11-05T17:32:49Z
NYC FLEET / DPRCITYWIDE#9,14 Bronx Shore Rd,New York,New York,Level 2,CT4020-HD-GW,Unreachable,NEEDS SERVICE,Powered Off,2023-02-01T14:29:32Z,0.0,2025-11-05T17:32:49Z
NYC FLEET / DOEPETRIDES-S1,21 Safety City Blvd,Todt Hill,New York,Level 2,CT4010-HD-GW,Unreachable,NEEDS SERVICE,Station Unreachable,2024-09-23T02:55:51Z,0.0,2025-11-05T17:32:49Z
NYC FLEET / DOH_BEDFORDHCS1,515 Putnam Ave,Bedford-Stuyvesant,New York,Level 2,CT4010-HD-GW,Unreachable,UNREACHABLE,NONE,2025-09-12T16:59:30Z,0.0,2025-11-05T17:32:49Z
NYC FLEET / NYPDBXTRAFFC-S2,4223 Third Ave,New York,New York,Level 2,CT4010-HD-GW,Unreachable,NEEDS SERVICE,Station Unreachable,2021-09-13T20:37:43Z,0.0,2025-11-05T17:32:49Z
NYC FLEET / DPR_CIG-S2,1521-1529 E 102nd St,New York,New York,Level 2,CT4010-HD-GW,Unreachable,UNREACHABLE,NONE,2025-11-05T14:54:41Z,0.0,2025-11-05T17:32:49Z
NYC FLEET / DOTFLATLANDS-S1,928 E 76th St,Canarsie,New York,Level 2,CT4010-HD-GW,Unreachable,UNREACHABLE,NONE,2025-11-04T18:47:47Z,0.0,2025-11-05T17:32:49Z
NYC FLEET / DOT_HARPER-S2,32-1 Harper St,Corona,New York,Level 2,CT4010-HD-GW,Unreachable,NEEDS SERVICE,Powered Off,2025-03-28T07:06:32Z,0.0,2025-11-05T17:32:49Z
NYC FLEET / DOT2811QNSPLAZA,28-11 Queens Plaza North,Queens,New York,Level 2,CT500-GPRS1-RFID-ZIG,Unreachable,NEEDS SERVICE,Station Unreachable,,0.0,2025-11-05T17:32:49Z
NYC FLEET / DOCTRANSARSEN02,Hillside Ave Transportation,Bronx,New York,Level 2,CT4020-HD-GW,Unreachable,UNREACHABLE,NONE,2025-11-05T15:04:24Z,0.0,2025-11-05T17:32:49Z
NYC FLEET / DOC_QNSCOURT,125-01 82nd Ave,Kew Gardens,New York,Level 2,CT4020-HD-GW,Unreachable,NEEDS SERVICE,Powered Off,2023-01-19T13:56:35Z,0.0,2025-11-05T17:32:49Z
NYC FLEET / DPR_CENTRALCOM1,313 Broome St,New York,New York,Level 2,CT4020-HD2-GW-LTE,Reachable,NEEDS SERVICE,GFCI Self Test,2025-11-05T17:26:55Z,0.0,2025-11-05T17:32:49Z
NYC FLEET / DPROVERLOOK1A-B,80-30 Park Ln,Kew Gardens,New York,Level 2,CT4020-HD-GW,Unreachable,UNREACHABLE,NONE,2025-11-05T13:00:19Z,0.0,2025-11-05T17:32:49Z
NYC FLEET / DPRBXPEPNORTH-2,Westchester Av/Burr Av,Pelham Bay,New York,Level 2,CT4020-HD-GW,Unreachable,UNREACHABLE,NONE,2025-11-05T07:43:39Z,0.0,2025-11-05T17:32:49Z
NYC FLEET / DOC_DIVISION-1,Hillside Ave,Bronx,New York,Level 2,CT4020-HD-GW,Unreachable,UNREACHABLE,NONE,2025-11-04T20:28:02Z,0.0,2025-11-05T17:32:49Z
NYC FLEET / DOC_RI-INVDIV-2,Hillside Ave,Bronx,New York,Level 2,CT4020-HD-GW,Unreachable,UNREACHABLE,NONE,2025-11-05T00:11:00Z,0.0,2025-11-05T17:32:49Z
NYC FLEET / NYPDSSHOP4_1_L3,49-21 Metropolitan Ave,New York,New York,Level 3,CPE250C-500-CCS1-CHD,Unreachable,UNREACHABLE,NONE,2025-11-05T15:43:03Z,0.0,2025-11-05T17:32:49Z
NYC FLEET / DSNY_BK02,465 Hamilton Ave,Brooklyn,New York,Level 2,CT4020-HD2-GW-LTE,Unreachable,NEEDS SERVICE,Powered Off,2025-10-17T12:32:10Z,0.0,2025-11-05T17:32:49Z
NYC FLEET / NYPDSSHOP9_1_L3,669 W 158 St,New York,New York,Level 3,CPE250C-500-CCS1-CHD,Unreachable,NEEDS SERVICE,Station Unreachable,2025-02-03T16:23:29Z,0.0,2025-11-05T17:32:49Z
NYC FLEET / NYPDSSHOP9_2_L3,669 W 158 St,New York,New York,Level 3,CPE250C-500-CCS1-CHD,Unreachable,UNREACHABLE,NONE,2025-02-03T16:22:57Z,0.0,2025-11-05T17:32:49Z
NYC FLEET / DHS_BKLMNR-1,300 Skillman Ave,East Williamsburg,New York,Level 2,CT4020-HD-GW,Unreachable,UNREACHABLE,NONE,2025-08-18T06:23:12Z,0.0,2025-11-05T17:32:49Z
NYC FLEET / DPRRIVERSIDE-S2,NY-9A,New York,New York,Level 2,CT4010-HD-GW,Unreachable,UNREACHABLE,NONE,2025-10-21T13:59:26Z,0.0,2025-11-05T17:32:49Z
NYC FLEET / DPRRIVERSIDE-S1,Hudson River Greenway,New York,New York,Level 2,CT4010-HD-GW,Unreachable,UNREACHABLE,NONE,2025-10-29T19:44:15Z,0.0,2025-11-05T17:32:49Z
NYC FLEET / OEMHQARC-S3,165 Cadman Plaza E,Brooklyn,New York,Level 2,CT4010-HD-GW,Unreachable,UNREACHABLE,NONE,2025-10-31T20:17:31Z,0.0,2025-11-05T17:32:49Z
NYC FLEET / DOE_ELECBUS,231 Malta St,East New York,New York,Level 2,CT4020-HD-GW,Unreachable,NEEDS SERVICE,Powered Off,2022-04-08T18:58:21Z,0.0,2025-11-05T17:32:49Z
NYC FLEET / DPRROCKAWY86-S1,8601 Shore Front Pkwy,Rockaway Beach,New York,Level 2,CT4010-HD-GW,Unreachable,NEEDS SERVICE,Powered Off,2025-08-01T22:32:28Z,0.0,2025-11-05T17:32:49Z
NYC FLEET / DPRPRSPCTYARDS2,48 West Dr,Brooklyn,New York,Level 2,CT4010-HD-GW,Unreachable,NEEDS SERVICE,Station Unreachable,2024-10-17T16:30:21Z,0.0,2025-11-05T17:32:49Z
NYC FLEET / DOE1230ZEREGAAV,1230 Zerega Ave,Bronx,New York,Level 2,CT2000-HD-GPRS1-CCR,Unreachable,NEEDS SERVICE,Station Unreachable,2022-01-01T05:46:42Z,0.0,2025-11-05T17:32:49Z
NYC FLEET / DOC_VBAIN-S,1 Halleck Street,Bronx,New York,Level 2,CT4010-HD-GW,Unreachable,UNREACHABLE,NONE,2025-10-01T05:29:54Z,0.0,2025-11-05T17:32:49Z
NYC FLEET / NYPDACADEMY-S1,3529 College Point Blvd,Flushing,New York,Level 2,CT4010-HD-GW,Unreachable,UNREACHABLE,NONE,2025-11-04T23:11:18Z,0.0,2025-11-05T17:32:49Z
NYC FLEET / NYPDACADEMY-S2,3529 College Point Blvd,Flushing,New York,Level 2,CT4010-HD-GW,Unreachable,UNREACHABLE,NONE,2025-11-05T02:42:16Z,0.0,2025-11-05T17:32:49Z
NYC FLEET / DEPOAKWWTP_2_L3,683 Mill Rd,Staten Island,New York,Level 3,CPE250C-500-CCS1-CHD,Reachable,UNREACHABLE,NONE,2025-11-05T16:59:18Z,0.0,2025-11-05T17:32:49Z
NYC FLEET / DPRPEPBURR-S1,2029 Burr Ave,Bronx,New York,Level 2,CT4010-HD-GW,Unreachable,UNREACHABLE,NONE,2025-10-29T21:20:46Z,0.0,2025-11-05T17:32:49Z
NYC FLEET / NYPDACADEMY-S4,130-30 28th Ave,Flushing,New York,Level 2,CT4010-HD2-GW-LTE,Unreachable,UNREACHABLE,NONE,2025-09-04T21:18:18Z,0.0,2025-11-05T17:32:49Z
NYC FLEET / NYPDACADEMY-S3,130-30 28th Ave,Flushing,New York,Level 2,CT4010-HD-GW,Unreachable,UNREACHABLE,NONE,2025-11-04T19:26:32Z,0.0,2025-11-05T17:32:49Z
NYC FLEET / DPRPEPBURR-S3,2029 Burr Ave,Middletown - Pelham Bay,New York,Level 2,CT4010-HD2-GW-LTE,Unreachable,NEEDS SERVICE,Powered Off,2025-10-10T19:38:13Z,0.0,2025-11-05T17:32:49Z
NYC FLEET / NYPDERIEBASN_S1,700 Columbia St,Red Hook,New York,Level 2,CT4010-HD-GW,Unreachable,NEEDS SERVICE,Powered Off,2025-10-31T16:41:28Z,0.0,2025-11-05T17:32:49Z
NYC FLEET / DPR_VC-GAR-S2,5788 Broadway,North Riverdale,New York,Level 2,CT4010-HD-GW,Unreachable,NEEDS SERVICE,Station Unreachable,2024-03-11T14:53:55Z,0.0,2025-11-05T17:32:49Z
NYC FLEET / DPRMBLOT8-S1,Father Capodanno Blvd,Midland Beach,New York,Level 2,CT4010-HD-GW,Unreachable,UNREACHABLE,NONE,2025-10-07T22:31:36Z,0.0,2025-11-05T17:32:49Z
NYC FLEET / DPR_VCP-S2,3903-3901 Jerome Ave,The Bronx,New York,Level 2,CT4010-HD-GW,Unreachable,UNREACHABLE,NONE,2025-10-31T10:32:51Z,0.0,2025-11-05T17:32:49Z
NYC FLEET / DPR_VCP-S1,189 Van Cortlandt Ave W Major Deegan Expy,The Bronx,New York,Level 2,CT4010-HD-GW,Unreachable,UNREACHABLE,NONE,2025-10-22T20:06:49Z,0.0,2025-11-05T17:32:49Z
NYC FLEET / DOC_HAZENLOT-S1,Hazen St,Rikers Island,New York,Level 2,CT4010-HD-GW,Unreachable,UNREACHABLE,NONE,2025-10-25T20:36:49Z,0.0,2025-11-05T17:32:49Z
NYC FLEET / DPRCALVAUX-S1,1990 Shore Pkwy,Gravesend,New York,Level 2,CT4010-HD-GW,Unreachable,UNREACHABLE,NONE,2025-11-04T22:03:17Z,0.0,2025-11-05T17:32:49Z
NYC FLEET / NYCHA 23ASH1A B,23 Ash St,Greenpoint,New York,Level 2,CT4020-HD-GW,Unreachable,UNREACHABLE,NONE,2025-10-20T10:15:44Z,0.0,2025-11-05T17:32:49Z
NYC FLEET / DEPCNY_ISL_1_L3,2509 Knapp St,Sheepshead Bay,New York,Level 3,CPE250C-500-CCS1-CHD,Unreachable,UNREACHABLE,NONE,2025-06-26T16:16:09Z,0.0,2025-11-05T17:32:49Z
NYC FLEET / DEPCNY_ISL_2_L3,3002 Knapp St,Sheepshead Bay,New York,Level 3,CPE250C-500-CCS1-CHD,Unreachable,UNREACHABLE,NONE,2025-06-26T16:17:02Z,0.0,2025-11-05T17:32:49Z
NYC FLEET / DPRCITYWIDE#7,13 Bronx Shore Rd,New York,New York,Level 2,CT4020-HD-GW,Unreachable,UNREACHABLE,NONE,2025-11-04T13:32:34Z,0.0,2025-11-05T17:32:49Z
NYC FLEET / OEMHQCADMAN-6,165 Cadman Plaza E,Brooklyn,New York,Level 2,CT600-GW1-RFID-ZIG,Unreachable,NEEDS SERVICE,Station Unreachable,2022-03-02T05:23:07Z,0.0,2025-11-05T17:32:49Z
NYC FLEET / DPRBXFORST#1A-B,1 Bronx River Pkwy,Bronx,New York,Level 2,CT4020-HD-GW,Unreachable,UNREACHABLE,NONE,2025-11-03T16:35:35Z,0.0,2025-11-05T17:32:49Z
